[{"OBJECT_NAME":"YAOGAN-36 02B","OBJECT_ID":"2022-133B","EPOCH":"2026-03-09T22:42:31.775904","MEAN_MOTION":15.30199518,"ECCENTRICITY":0.00056841,"INCLINATION":34.9983,"RA_OF_ASC_NODE":22.5268,"ARG_OF_PERICENTER":273.0351,"MEAN_ANOMALY":86.9715,"EPHEMERIS_TYPE":0,"CLASSIFICATION_TYPE":"U","NORAD_CAT_ID":54043,"ELEMENT_SET_NO":999,"REV_AT_EPOCH":18962,"BSTAR":0.00051218814,"MEAN_MOTION_DOT":0.00015352,"MEAN_MOTION_DDOT":0},{"OBJECT_NAME":"STARLINK-34752","OBJECT_ID":"2025-240H","EPOCH":"2026-03-09T10:13:08.148864","MEAN_MOTION":15.30200647,"ECCENTRICITY":0.00011088,"INCLINATION":53.1597,"RA_OF_ASC_NODE":64.3528,"ARG_OF_PERICENTER":102.6547,"MEAN_ANOMALY":257.4578,"EPHEMERIS_TYPE":0,"CLASSIFICATION_TYPE":"U","NORAD_CAT_ID":66153,"ELEMENT_SET_NO":999,"REV_AT_EPOCH":2194,"BSTAR":0.00055958175,"MEAN_MOTION_DOT":0.00016251,"MEAN_MOTION_DDOT":0}]
